CCSDS_OMM_VERS = 2.0
CREATION_DATE  = 
ORIGINATOR     = 

OBJECT_NAME    = COSMOS 1892
OBJECT_ID      = 1987-088A
CENTER_NAME    = EARTH
REF_FRAME      = TEME
TIME_SYSTEM    = UTC
MEAN_ELEMENT_THEORY = SGP/SGP4

EPOCH          = 2025-10-28T10:47:07.474848
MEAN_MOTION    = 15.90023764
ECCENTRICITY   = .00046929
INCLINATION    = 82.4701
RA_OF_ASC_NODE = 94.6427
ARG_OF_PERICENTER = 329.2767
MEAN_ANOMALY   = 30.8230

EPHEMERIS_TYPE = 0
CLASSIFICATION_TYPE = U
NORAD_CAT_ID   = 18421
ELEMENT_SET_NO = 999
REV_AT_EPOCH   = 8407
BSTAR          = .7485121E-3
MEAN_MOTION_DOT = .223236E-2
MEAN_MOTION_DDOT = .16658619E-4

CCSDS_OMM_VERS = 2.0
CREATION_DATE  = 
ORIGINATOR     = 

OBJECT_NAME    = SL-14 R/B
OBJECT_ID      = 1988-001B
CENTER_NAME    = EARTH
REF_FRAME      = TEME
TIME_SYSTEM    = UTC
MEAN_ELEMENT_THEORY = SGP/SGP4

EPOCH          = 2025-10-28T12:14:13.060032
MEAN_MOTION    = 14.85351399
ECCENTRICITY   = .00170069
INCLINATION    = 82.5116
RA_OF_ASC_NODE = 319.6991
ARG_OF_PERICENTER = 319.4357
MEAN_ANOMALY   = 40.5591

EPHEMERIS_TYPE = 0
CLASSIFICATION_TYPE = U
NORAD_CAT_ID   = 18749
ELEMENT_SET_NO = 999
REV_AT_EPOCH   = 2240
BSTAR          = .7423027E-4
MEAN_MOTION_DOT = .663E-5
MEAN_MOTION_DDOT = 0

CCSDS_OMM_VERS = 2.0
CREATION_DATE  = 
ORIGINATOR     = 

OBJECT_NAME    = COSMOS 1933
OBJECT_ID      = 1988-020A
CENTER_NAME    = EARTH
REF_FRAME      = TEME
TIME_SYSTEM    = UTC
MEAN_ELEMENT_THEORY = SGP/SGP4

EPOCH          = 2025-10-28T15:08:08.622240
MEAN_MOTION    = 15.16581656
ECCENTRICITY   = .00030912
INCLINATION    = 82.5166
RA_OF_ASC_NODE = 21.4253
ARG_OF_PERICENTER = 307.3729
MEAN_ANOMALY   = 52.7222

EPHEMERIS_TYPE = 0
CLASSIFICATION_TYPE = U
NORAD_CAT_ID   = 18958
ELEMENT_SET_NO = 999
REV_AT_EPOCH   = 3020
BSTAR          = .31877089E-3
MEAN_MOTION_DOT = .6252E-4
MEAN_MOTION_DDOT = 0

CCSDS_OMM_VERS = 2.0
CREATION_DATE  = 
ORIGINATOR     = 

OBJECT_NAME    = SL-3 R/B
OBJECT_ID      = 1988-032B
CENTER_NAME    = EARTH
REF_FRAME      = TEME
TIME_SYSTEM    = UTC
MEAN_ELEMENT_THEORY = SGP/SGP4

EPOCH          = 2025-10-28T14:06:13.739328
MEAN_MOTION    = 15.18033483
ECCENTRICITY   = .00263259
INCLINATION    = 97.5042
RA_OF_ASC_NODE = 280.6540
ARG_OF_PERICENTER = 338.5359
MEAN_ANOMALY   = 21.4769

EPHEMERIS_TYPE = 0
CLASSIFICATION_TYPE = U
NORAD_CAT_ID   = 19046
ELEMENT_SET_NO = 999
REV_AT_EPOCH   = 3205
BSTAR          = .3599315E-3
MEAN_MOTION_DOT = .7323E-4
MEAN_MOTION_DDOT = 0

CCSDS_OMM_VERS = 2.0
CREATION_DATE  = 
ORIGINATOR     = 

OBJECT_NAME    = SL-16 R/B
OBJECT_ID      = 1988-039B
CENTER_NAME    = EARTH
REF_FRAME      = TEME
TIME_SYSTEM    = UTC
MEAN_ELEMENT_THEORY = SGP/SGP4

EPOCH          = 2025-10-28T13:54:31.432608
MEAN_MOTION    = 14.19585775
ECCENTRICITY   = .00220699
INCLINATION    = 71.0161
RA_OF_ASC_NODE = 347.8887
ARG_OF_PERICENTER = 188.9167
MEAN_ANOMALY   = 171.1569

EPHEMERIS_TYPE = 0
CLASSIFICATION_TYPE = U
NORAD_CAT_ID   = 19120
ELEMENT_SET_NO = 999
REV_AT_EPOCH   = 93963
BSTAR          = .52323628E-4
MEAN_MOTION_DOT = .63E-6
MEAN_MOTION_DDOT = 0

CCSDS_OMM_VERS = 2.0
CREATION_DATE  = 
ORIGINATOR     = 

OBJECT_NAME    = COSMOS 1953
OBJECT_ID      = 1988-050A
CENTER_NAME    = EARTH
REF_FRAME      = TEME
TIME_SYSTEM    = UTC
MEAN_ELEMENT_THEORY = SGP/SGP4

EPOCH          = 2025-10-28T11:25:05.137824
MEAN_MOTION    = 15.26210854
ECCENTRICITY   = .00104555
INCLINATION    = 82.5068
RA_OF_ASC_NODE = 290.9814
ARG_OF_PERICENTER = 221.4551
MEAN_ANOMALY   = 138.5895

EPHEMERIS_TYPE = 0
CLASSIFICATION_TYPE = U
NORAD_CAT_ID   = 19210
ELEMENT_SET_NO = 999
REV_AT_EPOCH   = 1760
BSTAR          = .27910347E-3
MEAN_MOTION_DOT = .7263E-4
MEAN_MOTION_DDOT = 0

CCSDS_OMM_VERS = 2.0
CREATION_DATE  = 
ORIGINATOR     = 

OBJECT_NAME    = SL-8 R/B
OBJECT_ID      = 1988-053B
CENTER_NAME    = EARTH
REF_FRAME      = TEME
TIME_SYSTEM    = UTC
MEAN_ELEMENT_THEORY = SGP/SGP4

EPOCH          = 2025-10-28T15:29:14.887680
MEAN_MOTION    = 14.38818544
ECCENTRICITY   = .00206807
INCLINATION    = 74.0491
RA_OF_ASC_NODE = 355.8325
ARG_OF_PERICENTER = 212.4845
MEAN_ANOMALY   = 315.0348

EPHEMERIS_TYPE = 0
CLASSIFICATION_TYPE = U
NORAD_CAT_ID   = 19257
ELEMENT_SET_NO = 999
REV_AT_EPOCH   = 95760
BSTAR          = .1275299E-3
MEAN_MOTION_DOT = .367E-5
MEAN_MOTION_DDOT = 0

CCSDS_OMM_VERS = 2.0
CREATION_DATE  = 
ORIGINATOR     = 

OBJECT_NAME    = COSMOS 1975
OBJECT_ID      = 1988-093A
CENTER_NAME    = EARTH
REF_FRAME      = TEME
TIME_SYSTEM    = UTC
MEAN_ELEMENT_THEORY = SGP/SGP4

EPOCH          = 2025-10-28T08:05:51.832608
MEAN_MOTION    = 15.25371399
ECCENTRICITY   = .00093577
INCLINATION    = 82.5201
RA_OF_ASC_NODE = 250.2397
ARG_OF_PERICENTER = 281.1565
MEAN_ANOMALY   = 78.8620

EPHEMERIS_TYPE = 0
CLASSIFICATION_TYPE = U
NORAD_CAT_ID   = 19573
ELEMENT_SET_NO = 999
REV_AT_EPOCH   = 99920
BSTAR          = .53052693E-3
MEAN_MOTION_DOT = .13438E-3
MEAN_MOTION_DDOT = 0

CCSDS_OMM_VERS = 2.0
CREATION_DATE  = 
ORIGINATOR     = 

OBJECT_NAME    = SL-14 R/B
OBJECT_ID      = 1988-093B
CENTER_NAME    = EARTH
REF_FRAME      = TEME
TIME_SYSTEM    = UTC
MEAN_ELEMENT_THEORY = SGP/SGP4

EPOCH          = 2025-10-28T13:41:40.297920
MEAN_MOTION    = 14.85482350
ECCENTRICITY   = .0022143
INCLINATION    = 82.5318
RA_OF_ASC_NODE = 166.0535
ARG_OF_PERICENTER = 113.4670
MEAN_ANOMALY   = 270.1598

EPHEMERIS_TYPE = 0
CLASSIFICATION_TYPE = U
NORAD_CAT_ID   = 19574
ELEMENT_SET_NO = 999
REV_AT_EPOCH   = 98142
BSTAR          = .6891929E-4
MEAN_MOTION_DOT = .622E-5
MEAN_MOTION_DDOT = 0

CCSDS_OMM_VERS = 2.0
CREATION_DATE  = 
ORIGINATOR     = 

OBJECT_NAME    = SL-16 R/B
OBJECT_ID      = 1988-102B
CENTER_NAME    = EARTH
REF_FRAME      = TEME
TIME_SYSTEM    = UTC
MEAN_ELEMENT_THEORY = SGP/SGP4

EPOCH          = 2025-10-28T11:07:11.896896
MEAN_MOTION    = 14.16128388
ECCENTRICITY   = .0015548
INCLINATION    = 70.9995
RA_OF_ASC_NODE = 69.7048
ARG_OF_PERICENTER = 219.2414
MEAN_ANOMALY   = 140.7583

EPHEMERIS_TYPE = 0
CLASSIFICATION_TYPE = U
NORAD_CAT_ID   = 19650
ELEMENT_SET_NO = 999
REV_AT_EPOCH   = 90817
BSTAR          = .1860501E-3
MEAN_MOTION_DOT = .321E-5
MEAN_MOTION_DDOT = 0

CCSDS_OMM_VERS = 2.0
CREATION_DATE  = 
ORIGINATOR     = 

OBJECT_NAME    = INTERCOSMOS 24
OBJECT_ID      = 1989-080A
CENTER_NAME    = EARTH
REF_FRAME      = TEME
TIME_SYSTEM    = UTC
MEAN_ELEMENT_THEORY = SGP/SGP4

EPOCH          = 2025-10-28T09:02:13.685856
MEAN_MOTION    = 12.59344413
ECCENTRICITY   = .1187559
INCLINATION    = 82.6102
RA_OF_ASC_NODE = 190.4493
ARG_OF_PERICENTER = 239.7857
MEAN_ANOMALY   = 108.0479

EPHEMERIS_TYPE = 0
CLASSIFICATION_TYPE = U
NORAD_CAT_ID   = 20261
ELEMENT_SET_NO = 999
REV_AT_EPOCH   = 65014
BSTAR          = .2112991E-3
MEAN_MOTION_DOT = .712E-5
MEAN_MOTION_DDOT = 0

CCSDS_OMM_VERS = 2.0
CREATION_DATE  = 
ORIGINATOR     = 

OBJECT_NAME    = SL-14 R/B
OBJECT_ID      = 1989-080C
CENTER_NAME    = EARTH
REF_FRAME      = TEME
TIME_SYSTEM    = UTC
MEAN_ELEMENT_THEORY = SGP/SGP4

EPOCH          = 2025-10-28T10:57:56.708640
MEAN_MOTION    = 12.50368466
ECCENTRICITY   = .12314838
INCLINATION    = 82.5905
RA_OF_ASC_NODE = 258.0819
ARG_OF_PERICENTER = 127.0120
MEAN_ANOMALY   = 245.0187

EPHEMERIS_TYPE = 0
CLASSIFICATION_TYPE = U
NORAD_CAT_ID   = 20262
ELEMENT_SET_NO = 999
REV_AT_EPOCH   = 64362
BSTAR          = .83169874E-4
MEAN_MOTION_DOT = .307E-5
MEAN_MOTION_DDOT = 0

