COSMOS 1892             
1 18421U 87088A   25301.44939207  .00223236  16659-4  74851-3 0  9993
2 18421  82.4701  94.6427 0004692 329.2767  30.8230 15.90023764 84071
SL-14 R/B               
1 18749U 88001B   25301.50987338  .00000663  00000+0  74230-4 0  9994
2 18749  82.5116 319.6991 0017006 319.4357  40.5591 14.85351399 22408
COSMOS 1933             
1 18958U 88020A   25301.63065535  .00006252  00000+0  31877-3 0  9996
2 18958  82.5166  21.4253 0003091 307.3729  52.7222 15.16581656 30201
SL-3 R/B                
1 19046U 88032B   25301.58765902  .00007323  00000+0  35993-3 0  9990
2 19046  97.5042 280.6540 0026325 338.5359  21.4769 15.18033483 32053
SL-16 R/B               
1 19120U 88039B   25301.57953047  .00000063  00000+0  52324-4 0  9990
2 19120  71.0161 347.8887 0022069 188.9167 171.1569 14.19585775939637
COSMOS 1953             
1 19210U 88050A   25301.47575391  .00007263  00000+0  27910-3 0  9995
2 19210  82.5068 290.9814 0010455 221.4551 138.5895 15.26210854 17609
SL-8 R/B                
1 19257U 88053B   25301.64531120  .00000367  00000+0  12753-3 0  9997
2 19257  74.0491 355.8325 0020680 212.4845 315.0348 14.38818544957601
COSMOS 1975             
1 19573U 88093A   25301.33740547  .00013438  00000+0  53053-3 0  9994
2 19573  82.5201 250.2397 0009357 281.1565  78.8620 15.25371399999200
SL-14 R/B               
1 19574U 88093B   25301.57060530  .00000622  00000+0  68919-4 0  9997
2 19574  82.5318 166.0535 0022143 113.4670 270.1598 14.85482350981421
SL-16 R/B               
1 19650U 88102B   25301.46333214  .00000321  00000+0  18605-3 0  9995
2 19650  70.9995  69.7048 0015548 219.2414 140.7583 14.16128388908177
INTERCOSMOS 24          
1 20261U 89080A   25301.37654729  .00000712  00000+0  21130-3 0  9999
2 20261  82.6102 190.4493 1187559 239.7857 108.0479 12.59344413650140
SL-14 R/B               
1 20262U 89080C   25301.45690635  .00000307  00000+0  83170-4 0  9998
2 20262  82.5905 258.0819 1231483 127.0120 245.0187 12.50368466643620
